[{"OBJECT_NAME":"RADARSAT-2","OBJECT_ID":"2007-061A","EPOCH":"2026-03-09T23:01:05.689632","MEAN_MOTION":14.2996427,"ECCENTRICITY":0.00012561,"INCLINATION":98.582,"RA_OF_ASC_NODE":77.296,"ARG_OF_PERICENTER":84.478,"MEAN_ANOMALY":275.6546,"EPHEMERIS_TYPE":0,"CLASSIFICATION_TYPE":"U","NORAD_CAT_ID":32382,"ELEMENT_SET_NO":999,"REV_AT_EPOCH":95177,"BSTAR":-6.0240739e-5,"MEAN_MOTION_DOT":-1.99e-6,"MEAN_MOTION_DDOT":0},{"OBJECT_NAME":"CZ-6A DEB","OBJECT_ID":"2024-140MK","EPOCH":"2026-03-09T14:05:40.674048","MEAN_MOTION":14.42373853,"ECCENTRICITY":0.0061437,"INCLINATION":88.9274,"RA_OF_ASC_NODE":278.7768,"ARG_OF_PERICENTER":233.1914,"MEAN_ANOMALY":126.3643,"EPHEMERIS_TYPE":0,"CLASSIFICATION_TYPE":"U","NORAD_CAT_ID":60984,"ELEMENT_SET_NO":999,"REV_AT_EPOCH":8132,"BSTAR":0.00019576,"MEAN_MOTION_DOT":6.77e-6,"MEAN_MOTION_DDOT":0}]
